STARLINK-32689          
1 62440U 24251J   25103.18527647 -.00001607  00000+0 -30223-4 0  9990
2 62440  53.1606  74.2306 0001798  83.0222 277.0987 15.39596108 17288
STARLINK-32724          
1 62441U 24251K   25102.96272658  .00004698  00000+0  12734-3 0  9992
2 62441  53.1612  75.6877 0000634 120.0180 240.0887 15.39622194 17090
STARLINK-32291          
1 62442U 24251L   25102.34567351  .00006876  00000+0  18192-3 0  9996
2 62442  53.1607  78.2305 0001520  89.1012 271.0167 15.39589378 16858
STARLINK-32736          
1 62443U 24251M   25102.90246576  .00003296  00000+0  92317-4 0  9997
2 62443  53.1591  76.0210 0001373  90.2363 269.8799 15.39631127 17082
STARLINK-32737          
1 62444U 24251N   25103.25002315 -.00086494  00000+0 -21757-2 0  9999
2 62444  53.1575  74.1250 0001300  80.2283 177.9481 15.39637029 17295
STARLINK-32683          
1 62445U 24251P   25102.91132750  .00006192  00000+0  16459-3 0  9998
2 62445  53.1599  75.3595 0001580  89.8373 270.2813 15.39633629 17245
STARLINK-32726          
1 62446U 24251Q   25102.93023354  .00004717  00000+0  12780-3 0  9994
2 62446  53.1601  75.4811 0001276  79.9150 280.1998 15.39629154 16945
STARLINK-32730          
1 62447U 24251R   25102.91166058  .00004253  00000+0  11624-3 0  9993
2 62447  53.1595  75.3611 0001342  89.0839 271.0320 15.39623741 17254
STARLINK-32719          
1 62448U 24251S   25102.29547665 -.00000222  00000+0  46099-5 0  9991
2 62448  53.1610  74.9367 0000984 113.1591 246.9514 15.30192618 17038
STARLINK-32723          
1 62449U 24251T   25103.20813637 -.00002929  00000+0 -63292-4 0  9999
2 62449  53.1590  74.3669 0001098 333.1697  26.9251 15.39611917 17124
STARLINK-32722          
1 62450U 24251U   25103.17563227  .00002666  00000+0  76615-4 0  9993
2 62450  53.1587  74.1642 0000556 110.1212 249.9853 15.39616838 16913
STARLINK-32720          
1 62451U 24251V   25102.90678082  .00006428  00000+0  17051-3 0  9998
2 62451  53.1588  76.0447 0001327 101.7859 258.3294 15.39628478 16869
STARLINK-32656          
1 62452U 24251W   25103.25002315 -.00084375  00000+0 -21220-2 0  9999
2 62452  53.1583  73.9189 0001472  81.9433 279.2489 15.39630434 17136
STARLINK-32690          
1 62453U 24251X   25102.91668981  .00057919  00000+0  14482-2 0  9993
2 62453  53.1573  75.6959 0001272  99.2546 108.4711 15.39594256  5910
STARLINK-11518 [DTC]    
1 62462U 24254A   25103.22747651  .00000316  00000+0  59546-5 0  9995
2 62462  43.0007  55.3017 0001353 247.6987 112.3737 15.70838030 17425
STARLINK-11455 [DTC]    
1 62463U 24254B   25103.23278685  .00000439  00000+0  69185-5 0  9999
2 62463  43.0033  55.3443 0001576 277.3206  82.7482 15.70837366 17427
STARLINK-11459 [DTC]    
1 62464U 24254C   25102.93066901 -.00001121  00000+0 -52373-5 0  9994
2 62464  43.0027  56.4928 0002043 282.1283  77.9356 15.70845915 17379
STARLINK-11178 [DTC]    
1 62465U 24254D   25103.21686003  .00000648  00000+0  85530-5 0  9990
2 62465  43.0031  55.2143 0001789 273.6940  86.3723 15.70835076 17269
STARLINK-11506 [DTC]    
1 62466U 24254E   25103.23796784  .00000254  00000+0  54760-5 0  9995
2 62466  43.0008  54.4888 0001212 257.2930 102.7802 15.70837380 17271
STARLINK-11486 [DTC]    
1 62467U 24254F   25102.90425321 -.00001006  00000+0 -43400-5 0  9992
2 62467  43.0032  57.1694 0001720 265.5763  94.4908 15.70842253 17374
STARLINK-11511 [DTC]    
1 62468U 24254G   25103.20093231  .00002048  00000+0  19457-4 0  9997
2 62468  43.0017  55.0840 0001769 264.9582  95.1084 15.70835865 17423
STARLINK-11505 [DTC]    
1 62469U 24254H   25102.30015956  .00000554  00000+0  78138-5 0  9998
2 62469  42.9988  60.3626 0000984  29.7223 330.3700 15.70830715 17278
STARLINK-11497 [DTC]    
1 62470U 24254J   25103.20624018  .00002163  00000+0  20341-4 0  9995
2 62470  42.9994  55.1257 0001128 275.2193  84.8546 15.70840681 17423
STARLINK-11477 [DTC]    
1 62471U 24254K   25103.13826001  .00000531  00000+0  76369-5 0  9993
2 62471  43.0029  55.4738 0001568 268.8060  91.2628 15.70830771 17401
STARLINK-11500 [DTC]    
1 62472U 24254L   25102.16235299  .00010401  00000+0  84648-4 0  9994
2 62472  42.9976  61.0474 0000262 332.3712  27.7142 15.70782099 16731
STARLINK-11464 [DTC]    
1 62473U 24254M   25103.21157720 -.00002928  00000+0 -19349-4 0  9997
2 62473  43.0042  55.1666 0002235 268.3883  91.6729 15.70808994 17425
STARLINK-11502 [DTC]    
1 62474U 24254N   25102.24187674 -.00000349  00000+0  77093-6 0  9997
2 62474  42.9987  60.7917 0001207 267.3641  92.7088 15.70832413 17278
STARLINK-32657          
1 62475U 24254P   25103.21837698 -.00000154  00000+0  39393-5 0  9998
2 62475  42.9999  85.9837 0000985 222.9746 137.1029 15.27587213 16913
STARLINK-32734          
1 62476U 24254Q   25103.24199655  .00000752  00000+0  36846-4 0  9998
2 62476  43.0043  82.7045 0000804 283.5727  76.5035 15.27579052 17112
STARLINK-32733          
1 62477U 24254R   25103.20216068  .00000968  00000+0  44678-4 0  9994
2 62477  43.0034  82.3989 0000929 240.5395 119.5364 15.27580966 17117
STARLINK-32707          
1 62478U 24254S   25102.64322875  .00003512  00000+0  13703-3 0  9998
2 62478  43.0013  85.9448 0001371 257.5175 102.5524 15.27589350 17026
STARLINK-32705          
1 62479U 24254T   25102.66009857 -.00005417  00000+0 -12244-3 0  9990
2 62479  43.0034  81.7568 0001330 225.0072 135.0677 15.40714080 16910
STARLINK-32743          
1 62480U 24254U   25102.99829707  .00002531  00000+0  10152-3 0  9990
2 62480  43.0038  83.4546 0001992 294.3593  65.7051 15.27561211 17087
STARLINK-32753          
1 62481U 24254V   25103.20986982  .00002247  00000+0  91170-4 0  9999
2 62481  43.0023  82.4542 0001079 225.9154 134.1609 15.27573420 17115
STARLINK-32699          
1 62482U 24254W   25103.21195116  .00002225  00000+0  90353-4 0  9990
2 62482  43.0024  85.9381 0001097 254.7735 105.2996 15.27583318 16913
STARLINK-32713          
1 62487U 25003A   25103.11439680  .00002122  00000+0  86742-4 0  9997
2 62487  43.0038 355.9490 0002709 277.2308  82.8236 15.27536100 15947
STARLINK-32732          
1 62488U 25003B   25103.08096341  .00002272  00000+0  92063-4 0  9996
2 62488  43.0014 355.6946 0000492   0.8376 359.2477 15.27581855 15953
STARLINK-32328          
1 62489U 25003C   25103.06438485  .00007663  00000+0  28764-3 0  9999
2 62489  43.0055 356.4289 0001932 278.7490  81.3143 15.27587939 16101
STARLINK-32332          
1 62490U 25003D   25103.11822728  .00001972  00000+0  81140-4 0  9999
2 62490  42.9989 355.9728 0000233 348.4593  11.6254 15.27577490 16101
STARLINK-32717          
1 62491U 25003E   25103.09895409  .00010755  00000+0  39949-3 0  9991
2 62491  43.0006 355.8337 0001317 246.7404 113.3309 15.27603644 16117
STARLINK-32757          
1 62492U 25003F   25103.05924275  .00003858  00000+0  14950-3 0  9993
2 62492  43.0030 356.3855 0001321 259.9158 100.1544 15.27614038 15936
STARLINK-32731          
1 62493U 25003G   25102.74519212 -.00004661  00000+0 -16001-3 0  9994
2 62493  43.0021 358.3361 0001230 268.2117  91.8594 15.27566507 16050
STARLINK-32694          
1 62494U 25003H   25103.08867097  .00000250  00000+0  18601-4 0  9997
2 62494  42.9998 355.7578 0001547 278.8455  81.2221 15.27594747 16110
STARLINK-32708          
1 62495U 25003J   25103.12079676  .00002301  00000+0  93104-4 0  9991
2 62495  42.9997 355.9886 0000464 296.2826  63.7978 15.27577928 15998
STARLINK-32718          
1 62496U 25003K   25103.08482203  .00001665  00000+0  70014-4 0  9998
2 62496  42.9999 355.7304 0001573 314.7983  45.2740 15.27581392 15954
STARLINK-32729          
1 62497U 25003L   25103.09251448  .00004306  00000+0  16584-3 0  9991
2 62497  43.0037 355.7764 0001527 281.3235  78.7445 15.27597777 16114
STARLINK-32739          
1 62498U 25003M   25103.10794571  .00002121  00000+0  86486-4 0  9995
2 62498  43.0007 355.8922 0001915 278.3092  81.7542 15.27612367 16066
STARLINK-32714          
1 62499U 25003N   25103.00545031  .00001470  00000+0  62950-4 0  9996
2 62499  42.9996 356.8533 0002214 280.3356  79.7246 15.27573839 16091
STARLINK-32685          
1 62500U 25003P   25103.12849975  .00003933  00000+0  15235-3 0  9995
2 62500  43.0021 356.0522 0001627 283.2577  76.8093 15.27584645 16061
STARLINK-32691          
1 62501U 25003Q   25103.10666210 -.00004547  00000+0 -15589-3 0  9999
2 62501  43.0038 355.8805 0001100 278.7300  81.3427 15.27560279 16092
STARLINK-32788          
1 62502U 25003R   25102.12202617  .00009478  00000+0  35389-3 0  9994
2 62502  43.0041   1.3901 0001637 218.9584 141.1150 15.27544212 15841
STARLINK-32768          
1 62503U 25003S   25103.08608511  .00002575  00000+0  10302-3 0  9993
2 62503  43.0038 355.7249 0001145 251.1072 108.9655 15.27599639 15994
STARLINK-32792          
1 62504U 25003T   25103.07710017  .00005177  00000+0  19739-3 0  9992
2 62504  43.0014 355.6647 0000677 322.8634  37.2171 15.27597824 15945
STARLINK-32725          
1 62505U 25003U   25102.42453236  .00002904  00000+0  11502-3 0  9993
2 62505  43.0012 359.3548 0000984 349.3268  10.7562 15.27578513 15891
STARLINK-32681          
1 62506U 25003V   25103.04731619 -.00013902  00000+0 -49536-3 0  9997
2 62506  43.0045 337.7055 0004257 302.1724  57.8715 15.27650026 16312
STARLINK-32679          
1 62507U 25003W   25103.07468003  .00004603  00000+0  17690-3 0  9997
2 62507  43.0036 356.4690 0001040 312.3420  47.7343 15.27542951 16108
STARLINK-32749          
1 62508U 25003X   25103.09636852  .00004240  00000+0  16343-3 0  9990
2 62508  43.0042 355.8064 0001475 274.1667  85.9016 15.27600755 15998
STARLINK-32744          
1 62509U 25003Y   25103.06696518  .00004156  00000+0  16046-3 0  9999
2 62509  43.0020 356.4538 0001280 273.0244  87.0461 15.27581732 15980
STARLINK-32701          
1 62510U 25003Z   25103.11050544  .00004344  00000+0  16721-3 0  9999
2 62510  43.0012 355.9125 0000966 276.8149  83.2593 15.27593289 15999
